{"type": "FeatureCollection", "features": [ {"type": "Feature", "properties": {"norad_id": 66517, "name": "STARLINK-35937", "group": "last-30-days", "lat": 38.63429310185203, "lon": -123.40874852265347, "alt_km": 339.3064846975403, "timestamp": "2025-12-02T08:59:31.503922+00:00", "meta": {"OBJECT_NAME": "STARLINK-35937", "OBJECT_ID": "2025-265B", "EPOCH": "2025-12-02T04:00:03.998880", "MEAN_MOTION": 15.75027739, "ECCENTRICITY": 0.0001574, "INCLINATION": 42.9997, "RA_OF_ASC_NODE": 116.9178, "ARG_OF_PERICENTER": 266.3366, "MEAN_ANOMALY": 106.7302, "EPHEMERIS_TYPE": 0, "CLASSIFICATION_TYPE": "U", "NORAD_CAT_ID": 66517, "ELEMENT_SET_NO": 999, "REV_AT_EPOCH": 329, "BSTAR": 0.00013938, "MEAN_MOTION_DOT": 0.00020975, "MEAN_MOTION_DDOT": 0}, "tle": {"line1": "1 66517U 25265B   25336.16671295  .00020975  00000+0  13938-3 0  9990", "line2": "2 66517  42.9997 116.9178 0001574 266.3366 106.7302 15.75027739  3298"}}, "geometry": {"type": "Point", "coordinates": [-123.40874852265347, 38.63429310185203]}}, {"type": "Feature", "properties": {"norad_id": 66518, "name": "STARLINK-35962", "group": "last-30-days", "lat": 37.94347400116919, "lon": -121.14734464012632, "alt_km": 339.5774213716795, "timestamp": "2025-12-02T08:59:31.503935+00:00", "meta": {"OBJECT_NAME": "STARLINK-35962", "OBJECT_ID": "2025-265C", "EPOCH": "2025-12-02T04:00:03.998880", "MEAN_MOTION": 15.75127529, "ECCENTRICITY": 0.0002105, "INCLINATION": 42.9995, "RA_OF_ASC_NODE": 116.9132, "ARG_OF_PERICENTER": 266.0478, "MEAN_ANOMALY": 108.8727, "EPHEMERIS_TYPE": 0, "CLASSIFICATION_TYPE": "U", "NORAD_CAT_ID": 66518, "ELEMENT_SET_NO": 999, "REV_AT_EPOCH": 329, "BSTAR": -0.00067816, "MEAN_MOTION_DOT": -0.00103788, "MEAN_MOTION_DDOT": 0}, "tle": {"line1": "1 66518U 25265C   25336.16671295 -.00103788  00000+0 -67816-3 0  9991", "line2": "2 66518  42.9995 116.9132 0002105 266.0478 108.8727 15.75127529  3291"}}, "geometry": {"type": "Point", "coordinates": [-121.14734464012632, 37.94347400116919]}}, {"type": "Feature", "properties": {"norad_id": 66519, "name": "STARLINK-35931", "group": "last-30-days", "lat": 37.203824296654524, "lon": -118.91101213716189, "alt_km": 339.66279735588523, "timestamp": "2025-12-02T08:59:31.503945+00:00", "meta": {"OBJECT_NAME": "STARLINK-35931", "OBJECT_ID": "2025-265D", "EPOCH": "2025-12-02T04:00:03.998880", "MEAN_MOTION": 15.75031755, "ECCENTRICITY": 0.0001903, "INCLINATION": 42.9996, "RA_OF_ASC_NODE": 116.9078, "ARG_OF_PERICENTER": 264.9173, "MEAN_ANOMALY": 111.9771, "EPHEMERIS_TYPE": 0, "CLASSIFICATION_TYPE": "U", "NORAD_CAT_ID": 66519, "ELEMENT_SET_NO": 999, "REV_AT_EPOCH": 329, "BSTAR": 0.00014942, "MEAN_MOTION_DOT": 0.00022529, "MEAN_MOTION_DDOT": 0}, "tle": {"line1": "1 66519U 25265D   25336.16671295  .00022529  00000+0  14942-3 0  9995", "line2": "2 66519  42.9996 116.9078 0001903 264.9173 111.9771 15.75031755  3295"}}, "geometry": {"type": "Point", "coordinates": [-118.91101213716189, 37.203824296654524]}}, {"type": "Feature", "properties": {"norad_id": 66520, "name": "STARLINK-35952", "group": "last-30-days", "lat": 36.40094286651034, "lon": -116.66075208611494, "alt_km": 339.6100973203247, "timestamp": "2025-12-02T08:59:31.503956+00:00", "meta": {"OBJECT_NAME": "STARLINK-35952", "OBJECT_ID": "2025-265E", "EPOCH": "2025-12-02T04:00:03.998880", "MEAN_MOTION": 15.75235655, "ECCENTRICITY": 0.0001566, "INCLINATION": 42.9994, "RA_OF_ASC_NODE": 116.903, "ARG_OF_PERICENTER": 293.5023, "MEAN_ANOMALY": 85.2607, "EPHEMERIS_TYPE": 0, "CLASSIFICATION_TYPE": "U", "NORAD_CAT_ID": 66520, "ELEMENT_SET_NO": 999, "REV_AT_EPOCH": 329, "BSTAR": -0.0022687, "MEAN_MOTION_DOT": -0.00338275, "MEAN_MOTION_DDOT": 0}, "tle": {"line1": "1 66520U 25265E   25336.16671295 -.00338275  00000+0 -22687-2 0  9991", "line2": "2 66520  42.9994 116.9030 0001566 293.5023  85.2607 15.75235655  3296"}}, "geometry": {"type": "Point", "coordinates": [-116.66075208611494, 36.40094286651034]}}, {"type": "Feature", "properties": {"norad_id": 66521, "name": "STARLINK-35915", "group": "last-30-days", "lat": 35.573033822435484, "lon": -114.49847036836465, "alt_km": 339.6669489073083, "timestamp": "2025-12-02T08:59:31.503971+00:00", "meta": {"OBJECT_NAME": "STARLINK-35915", "OBJECT_ID": "2025-265F", "EPOCH": "2025-12-02T04:00:03.998880", "MEAN_MOTION": 15.75226349, "ECCENTRICITY": 0.0001567, "INCLINATION": 42.9996, "RA_OF_ASC_NODE": 116.898, "ARG_OF_PERICENTER": 280.864, "MEAN_ANOMALY": 99.8412, "EPHEMERIS_TYPE": 0, "CLASSIFICATION_TYPE": "U", "NORAD_CAT_ID": 66521, "ELEMENT_SET_NO": 999, "REV_AT_EPOCH": 329, "BSTAR": -0.0020122, "MEAN_MOTION_DOT": -0.00301271, "MEAN_MOTION_DDOT": 0}, "tle": {"line1": "1 66521U 25265F   25336.16671295 -.00301271  00000+0 -20122-2 0  9990", "line2": "2 66521  42.9996 116.8980 0001567 280.8640  99.8412 15.75226349  3292"}}, "geometry": {"type": "Point", "coordinates": [-114.49847036836465, 35.573033822435484]}}, {"type": "Feature", "properties": {"norad_id": 66522, "name": "STARLINK-35946", "group": "last-30-days", "lat": 34.75002140583315, "lon": -112.48426155444749, "alt_km": 339.96025410247057, "timestamp": "2025-12-02T08:59:31.503981+00:00", "meta": {"OBJECT_NAME": "STARLINK-35946", "OBJECT_ID": "2025-265G", "EPOCH": "2025-12-02T04:00:03.998880", "MEAN_MOTION": 15.75015865, "ECCENTRICITY": 0.0001739, "INCLINATION": 42.9993, "RA_OF_ASC_NODE": 116.8931, "ARG_OF_PERICENTER": 269.7641, "MEAN_ANOMALY": 112.8892, "EPHEMERIS_TYPE": 0, "CLASSIFICATION_TYPE": "U", "NORAD_CAT_ID": 66522, "ELEMENT_SET_NO": 999, "REV_AT_EPOCH": 329, "BSTAR": 0.00034738, "MEAN_MOTION_DOT": 0.00053166, "MEAN_MOTION_DDOT": 0}, "tle": {"line1": "1 66522U 25265G   25336.16671295  .00053166  00000+0  34738-3 0  9995", "line2": "2 66522  42.9993 116.8931 0001739 269.7641 112.8892 15.75015865  3291"}}, "geometry": {"type": "Point", "coordinates": [-112.48426155444749, 34.75002140583315]}}, {"type": "Feature", "properties": {"norad_id": 66523, "name": "STARLINK-35969", "group": "last-30-days", "lat": 33.86132911030402, "lon": -110.43495854853603, "alt_km": 340.0319239657483, "timestamp": "2025-12-02T08:59:31.503991+00:00", "meta": {"OBJECT_NAME": "STARLINK-35969", "OBJECT_ID": "2025-265H", "EPOCH": "2025-12-02T04:00:03.998880", "MEAN_MOTION": 15.75016894, "ECCENTRICITY": 0.0001625, "INCLINATION": 42.9998, "RA_OF_ASC_NODE": 116.8883, "ARG_OF_PERICENTER": 274.8283, "MEAN_ANOMALY": 109.7313, "EPHEMERIS_TYPE": 0, "CLASSIFICATION_TYPE": "U", "NORAD_CAT_ID": 66523, "ELEMENT_SET_NO": 999, "REV_AT_EPOCH": 329, "BSTAR": 0.0005329, "MEAN_MOTION_DOT": 0.00082101, "MEAN_MOTION_DDOT": 0}, "tle": {"line1": "1 66523U 25265H   25336.16671295  .00082101  00000+0  53290-3 0  9991", "line2": "2 66523  42.9998 116.8883 0001625 274.8283 109.7313 15.75016894  3292"}}, "geometry": {"type": "Point", "coordinates": [-110.43495854853603, 33.86132911030402]}}, {"type": "Feature", "properties": {"norad_id": 66524, "name": "STARLINK-35687", "group": "last-30-days", "lat": 32.936915867404, "lon": -108.42514228431423, "alt_km": 340.2683261394686, "timestamp": "2025-12-02T08:59:31.504001+00:00", "meta": {"OBJECT_NAME": "STARLINK-35687", "OBJECT_ID": "2025-265J", "EPOCH": "2025-12-02T04:00:03.998880", "MEAN_MOTION": 15.75008551, "ECCENTRICITY": 0.0001792, "INCLINATION": 42.9997, "RA_OF_ASC_NODE": 116.8833, "ARG_OF_PERICENTER": 273.5227, "MEAN_ANOMALY": 112.962, "EPHEMERIS_TYPE": 0, "CLASSIFICATION_TYPE": "U", "NORAD_CAT_ID": 66524, "ELEMENT_SET_NO": 999, "REV_AT_EPOCH": 329, "BSTAR": 0.00053623, "MEAN_MOTION_DOT": 0.00082593, "MEAN_MOTION_DDOT": 0}, "tle": {"line1": "1 66524U 25265J   25336.16671295  .00082593  00000+0  53623-3 0  9997", "line2": "2 66524  42.9997 116.8833 0001792 273.5227 112.9620 15.75008551  3294"}}, "geometry": {"type": "Point", "coordinates": [-108.42514228431423, 32.936915867404]}}, {"type": "Feature", "properties": {"norad_id": 66525, "name": "STARLINK-35975", "group": "last-30-days", "lat": 31.980465874040778, "lon": -106.4565383721829, "alt_km": 340.2001356215096, "timestamp": "2025-12-02T08:59:31.504011+00:00", "meta": {"OBJECT_NAME": "STARLINK-35975", "OBJECT_ID": "2025-265K", "EPOCH": "2025-12-02T04:00:03.998880", "MEAN_MOTION": 15.75018888, "ECCENTRICITY": 0.0001595, "INCLINATION": 42.9995, "RA_OF_ASC_NODE": 116.8789, "ARG_OF_PERICENTER": 265.4807, "MEAN_ANOMALY": 122.9192, "EPHEMERIS_TYPE": 0, "CLASSIFICATION_TYPE": "U", "NORAD_CAT_ID": 66525, "ELEMENT_SET_NO": 999, "REV_AT_EPOCH": 329, "BSTAR": 0.00036964, "MEAN_MOTION_DOT": 0.00056635, "MEAN_MOTION_DDOT": 0}, "tle": {"line1": "1 66525U 25265K   25336.16671295  .00056635  00000+0  36964-3 0  9995", "line2": "2 66525  42.9995 116.8789 0001595 265.4807 122.9192 15.75018888  3297"}}, "geometry": {"type": "Point", "coordinates": [-106.4565383721829, 31.980465874040778]}}, {"type": "Feature", "properties": {"norad_id": 66526, "name": "STARLINK-35932", "group": "last-30-days", "lat": 30.996243179661395, "lon": -104.53303864178315, "alt_km": 340.40137469641286, "timestamp": "2025-12-02T08:59:31.504024+00:00", "meta": {"OBJECT_NAME": "STARLINK-35932", "OBJECT_ID": "2025-265L", "EPOCH": "2025-12-02T04:00:03.998880", "MEAN_MOTION": 15.75004409, "ECCENTRICITY": 0.0001621, "INCLINATION": 42.9996, "RA_OF_ASC_NODE": 116.8742, "ARG_OF_PERICENTER": 267.7566, "MEAN_ANOMALY": 122.5661, "EPHEMERIS_TYPE": 0, "CLASSIFICATION_TYPE": "U", "NORAD_CAT_ID": 66526, "ELEMENT_SET_NO": 999, "REV_AT_EPOCH": 318, "BSTAR": 0.00046423, "MEAN_MOTION_DOT": 0.00071329, "MEAN_MOTION_DDOT": 0}, "tle": {"line1": "1 66526U 25265L   25336.16671295  .00071329  00000+0  46423-3 0  9994", "line2": "2 66526  42.9996 116.8742 0001621 267.7566 122.5661 15.75004409  3184"}}, "geometry": {"type": "Point", "coordinates": [-104.53303864178315, 30.996243179661395]}}]}